GLOBALSTAR M057         
1 25943U 99058A   24139.62303112 -.00000043  00000+0  45270-3 0  9999
2 25943  52.0012  27.9345 0001646 292.6574  67.4102 12.24787954118589
GLOBALSTAR M059         
1 25944U 99058B   24139.61878378 -.00000045  00000+0  50645-3 0  9994
2 25944  51.9996 194.5912 0000647 225.0333 302.9833 11.99961787526673
GLOBALSTAR M056         
1 25945U 99058C   24139.61268462 -.00000084  00000+0  41809-4 0  9998
2 25945  51.9952 206.7004 0001158 128.3128  19.7368 12.04775671115064
GLOBALSTAR M031         
1 25946U 99058D   24139.27810527 -.00000030  00000+0  61058-3 0  9994
2 25946  51.9939 123.5740 0001408  86.5513 286.6362 12.16007836116507
GLOBALSTAR M039         
1 25961U 99062A   24139.44651847 -.00000045  00000+0  32994-3 0  9996
2 25961  51.9869  30.9834 0002395 177.3795 182.7084 12.62291497130364
GLOBALSTAR M034         
1 25962U 99062B   24139.21637639 -.00000024  00000+0  91222-3 0  9991
2 25962  51.9885 318.0660 0014038  18.8997 152.5039 11.79429676 91786
GLOBALSTAR M029         
1 25963U 99062C   24139.81566486 -.00000055  00000+0  38647-3 0  9995
2 25963  51.9805  82.4300 0002985  58.6195 316.8006 11.99878188121839
GLOBALSTAR M061         
1 25964U 99062D   24139.42334424 -.00000039  00000+0  66934-3 0  9990
2 25964  51.9759 136.3295 0006265 303.2338 205.0462 11.76762496 74700
